{
  "type": "FeatureCollection",
  "features": [
    {
      "type": "Feature",
      "properties": {
        "norad_id": 34141,
        "name": "COSMOS 2251 DEB",
        "group": "cosmos-2251-debris",
        "lat": 38.89055660561401,
        "lon": -150.56821146947172,
        "alt_km": 691.2605840925034,
        "timestamp": "2025-12-05T07:38:19.239128+00:00",
        "meta_object_name": "COSMOS 2251 DEB",
        "meta_object_id": "1993-036LN",
        "meta_epoch": "2025-12-04T11:10:07.241376",
        "meta_mean_motion": 14.49092626,
        "meta_eccentricity": 0.0048223,
        "meta_inclination": 74.012,
        "meta_ra_of_asc_node": 44.4044,
        "meta_arg_of_pericenter": 133.2853,
        "meta_mean_anomaly": 238.1039,
        "meta_ephemeris_type": 0,
        "meta_classification_type": "U",
        "meta_norad_cat_id": 34141,
        "meta_element_set_no": 999,
        "meta_rev_at_epoch": 87574,
        "meta_bstar": 0.004602,
        "meta_mean_motion_dot": 0.00017766,
        "meta_mean_motion_ddot": 0,
        "tle_line1": "1 34141U 93036LN  25338.46536159  .00017766  00000+0  46020-2 0  9994",
        "tle_line2": "2 34141  74.0120  44.4044 0048223 133.2853 238.1039 14.49092626875743"
      },
      "geometry": {
        "type": "Point",
        "coordinates": [
          -150.56821146947172,
          38.89055660561401
        ]
      }
    },
    {
      "type": "Feature",
      "properties": {
        "norad_id": 34270,
        "name": "COSMOS 2251 DEB",
        "group": "cosmos-2251-debris",
        "lat": 28.00693180199191,
        "lon": -30.29985398117684,
        "alt_km": 673.0998697182886,
        "timestamp": "2025-12-05T07:38:19.239139+00:00",
        "meta_object_name": "COSMOS 2251 DEB",
        "meta_object_id": "1993-036LQ",
        "meta_epoch": "2025-12-04T08:33:44.069184",
        "meta_mean_motion": 14.65090528,
        "meta_eccentricity": 0.0047909,
        "meta_inclination": 74.011,
        "meta_ra_of_asc_node": 322.7801,
        "meta_arg_of_pericenter": 118.1381,
        "meta_mean_anomaly": 242.4641,
        "meta_ephemeris_type": 0,
        "meta_classification_type": "U",
        "meta_norad_cat_id": 34270,
        "meta_element_set_no": 999,
        "meta_rev_at_epoch": 88973,
        "meta_bstar": 0.0008536,
        "meta_mean_motion_dot": 4.633e-05,
        "meta_mean_motion_ddot": 0,
        "tle_line1": "1 34270U 93036LQ  25338.35676006  .00004633  00000+0  85360-3 0  9991",
        "tle_line2": "2 34270  74.0110 322.7801 0047909 118.1381 242.4641 14.65090528889734"
      },
      "geometry": {
        "type": "Point",
        "coordinates": [
          -30.29985398117684,
          28.00693180199191
        ]
      }
    },
    {
      "type": "Feature",
      "properties": {
        "norad_id": 34271,
        "name": "COSMOS 2251 DEB",
        "group": "cosmos-2251-debris",
        "lat": -8.316211987584428,
        "lon": 36.145105535311174,
        "alt_km": 660.6874477714537,
        "timestamp": "2025-12-05T07:38:19.239149+00:00",
        "meta_object_name": "COSMOS 2251 DEB",
        "meta_object_id": "1993-036LR",
        "meta_epoch": "2025-12-04T16:13:28.726752",
        "meta_mean_motion": 14.70483861,
        "meta_eccentricity": 0.001964,
        "meta_inclination": 74.0199,
        "meta_ra_of_asc_node": 214.9913,
        "meta_arg_of_pericenter": 270.0975,
        "meta_mean_anomaly": 120.1152,
        "meta_ephemeris_type": 0,
        "meta_classification_type": "U",
        "meta_norad_cat_id": 34271,
        "meta_element_set_no": 999,
        "meta_rev_at_epoch": 88116,
        "meta_bstar": 0.0046317,
        "meta_mean_motion_dot": 0.00028257,
        "meta_mean_motion_ddot": 0,
        "tle_line1": "1 34271U 93036LR  25338.67602693  .00028257  00000+0  46317-2 0  9994",
        "tle_line2": "2 34271  74.0199 214.9913 0019640 270.0975 120.1152 14.70483861881166"
      },
      "geometry": {
        "type": "Point",
        "coordinates": [
          36.145105535311174,
          -8.316211987584428
        ]
      }
    },
    {
      "type": "Feature",
      "properties": {
        "norad_id": 34273,
        "name": "COSMOS 2251 DEB",
        "group": "cosmos-2251-debris",
        "lat": 70.76497581994514,
        "lon": -133.51178516778668,
        "alt_km": 688.4000376811,
        "timestamp": "2025-12-05T07:38:19.239159+00:00",
        "meta_object_name": "COSMOS 2251 DEB",
        "meta_object_id": "1993-036LT",
        "meta_epoch": "2025-12-04T12:00:20.831040",
        "meta_mean_motion": 14.61093789,
        "meta_eccentricity": 0.0014485,
        "meta_inclination": 74.0354,
        "meta_ra_of_asc_node": 103.1791,
        "meta_arg_of_pericenter": 228.6522,
        "meta_mean_anomaly": 251.2363,
        "meta_ephemeris_type": 0,
        "meta_classification_type": "U",
        "meta_norad_cat_id": 34273,
        "meta_element_set_no": 999,
        "meta_rev_at_epoch": 88501,
        "meta_bstar": 0.0024882,
        "meta_mean_motion_dot": 0.00012241,
        "meta_mean_motion_ddot": 0,
        "tle_line1": "1 34273U 93036LT  25338.50024110  .00012241  00000+0  24882-2 0  9999",
        "tle_line2": "2 34273  74.0354 103.1791 0014485 228.6522 251.2363 14.61093789885017"
      },
      "geometry": {
        "type": "Point",
        "coordinates": [
          -133.51178516778668,
          70.76497581994514
        ]
      }
    },
    {
      "type": "Feature",
      "properties": {
        "norad_id": 34274,
        "name": "COSMOS 2251 DEB",
        "group": "cosmos-2251-debris",
        "lat": 73.92168163687558,
        "lon": 167.25918922771623,
        "alt_km": 683.661311141851,
        "timestamp": "2025-12-05T07:38:19.239169+00:00",
        "meta_object_name": "COSMOS 2251 DEB",
        "meta_object_id": "1993-036LU",
        "meta_epoch": "2025-12-04T06:46:46.536384",
        "meta_mean_motion": 14.64607254,
        "meta_eccentricity": 0.0022457,
        "meta_inclination": 74.0047,
        "meta_ra_of_asc_node": 84.8589,
        "meta_arg_of_pericenter": 234.9977,
        "meta_mean_anomaly": 154.4712,
        "meta_ephemeris_type": 0,
        "meta_classification_type": "U",
        "meta_norad_cat_id": 34274,
        "meta_element_set_no": 999,
        "meta_rev_at_epoch": 88552,
        "meta_bstar": 0.0031303,
        "meta_mean_motion_dot": 0.00016701,
        "meta_mean_motion_ddot": 0,
        "tle_line1": "1 34274U 93036LU  25338.28248306  .00016701  00000+0  31303-2 0  9991",
        "tle_line2": "2 34274  74.0047  84.8589 0022457 234.9977 154.4712 14.64607254885528"
      },
      "geometry": {
        "type": "Point",
        "coordinates": [
          167.25918922771623,
          73.92168163687558
        ]
      }
    },
    {
      "type": "Feature",
      "properties": {
        "norad_id": 34276,
        "name": "COSMOS 2251 DEB",
        "group": "cosmos-2251-debris",
        "lat": -44.71264933603539,
        "lon": -64.09334509161447,
        "alt_km": 693.5450031798027,
        "timestamp": "2025-12-05T07:38:19.239180+00:00",
        "meta_object_name": "COSMOS 2251 DEB",
        "meta_object_id": "1993-036LW",
        "meta_epoch": "2025-12-04T13:02:55.463136",
        "meta_mean_motion": 14.57132168,
        "meta_eccentricity": 0.0022795,
        "meta_inclination": 74.0231,
        "meta_ra_of_asc_node": 100.901,
        "meta_arg_of_pericenter": 248.0796,
        "meta_mean_anomaly": 237.4099,
        "meta_ephemeris_type": 0,
        "meta_classification_type": "U",
        "meta_norad_cat_id": 34276,
        "meta_element_set_no": 999,
        "meta_rev_at_epoch": 88473,
        "meta_bstar": 0.0019992,
        "meta_mean_motion_dot": 9.029e-05,
        "meta_mean_motion_ddot": 0,
        "tle_line1": "1 34276U 93036LW  25338.54369749  .00009029  00000+0  19992-2 0  9992",
        "tle_line2": "2 34276  74.0231 100.9010 0022795 248.0796 237.4099 14.57132168884735"
      },
      "geometry": {
        "type": "Point",
        "coordinates": [
          -64.09334509161447,
          -44.71264933603539
        ]
      }
    },
    {
      "type": "Feature",
      "properties": {
        "norad_id": 34297,
        "name": "COSMOS 2251 DEB",
        "group": "cosmos-2251-debris",
        "lat": 63.23872986131889,
        "lon": -27.585959980769815,
        "alt_km": 757.1370851840111,
        "timestamp": "2025-12-05T07:38:19.239190+00:00",
        "meta_object_name": "COSMOS 2251 DEB",
        "meta_object_id": "1993-036MT",
        "meta_epoch": "2025-12-04T15:26:02.583744",
        "meta_mean_motion": 14.36617604,
        "meta_eccentricity": 0.0016914,
        "meta_inclination": 74.0483,
        "meta_ra_of_asc_node": 299.1001,
        "meta_arg_of_pericenter": 9.5377,
        "meta_mean_anomaly": 167.9927,
        "meta_ephemeris_type": 0,
        "meta_classification_type": "U",
        "meta_norad_cat_id": 34297,
        "meta_element_set_no": 999,
        "meta_rev_at_epoch": 87948,
        "meta_bstar": 0.00026969,
        "meta_mean_motion_dot": 7.68e-06,
        "meta_mean_motion_ddot": 0,
        "tle_line1": "1 34297U 93036MT  25338.64308546  .00000768  00000+0  26969-3 0  9998",
        "tle_line2": "2 34297  74.0483 299.1001 0016914   9.5377 167.9927 14.36617604879482"
      },
      "geometry": {
        "type": "Point",
        "coordinates": [
          -27.585959980769815,
          63.23872986131889
        ]
      }
    }
  ]
}